IRIDIUM 159             
1 43578U 18061K   24335.75567167  .00001010  00000+0  35351-3 0  9995
2 43578  86.3942 292.1467 0002152  88.7690 271.3753 14.34219684332626
IRIDIUM 180             
1 43922U 19002A   24335.96447538  .00000805  00000+0  28051-3 0  9996
2 43922  86.3996 228.9237 0002134  82.9786 277.1653 14.34221329308267
IRIDIUM 176             
1 43923U 19002B   24336.11450331  .00002961  00000+0  46538-3 0  9995
2 43923  86.6124 228.8693 0002991  86.5611 273.5948 14.72264276316409
IRIDIUM 168             
1 43924U 19002C   24335.95813640  .00000069  00000+0  17430-4 0  9990
2 43924  86.3999 228.9877 0002064  83.0783 277.0647 14.34217586308243
IRIDIUM 173             
1 43925U 19002D   24335.94544456  .00000775  00000+0  26962-3 0  9999
2 43925  86.3994 228.9051 0002082  82.8901 277.2531 14.34222313308239
IRIDIUM 169             
1 43926U 19002E   24335.92007953  .00001199  00000+0  38565-3 0  9997
2 43926  86.4222 260.5335 0003616  60.7627 299.3933 14.38602646309244
IRIDIUM 172             
1 43927U 19002F   24335.66002997  .00000285  00000+0  94772-4 0  9990
2 43927  86.3994 229.0304 0002053  86.7536 273.3895 14.34215537308194
IRIDIUM 175             
1 43928U 19002G   24336.85675391  .00002909  00000+0  45717-3 0  9996
2 43928  86.1532 192.2848 0001802  47.0491 313.0876 14.72260621316507
